{"type": "FeatureCollection", "features": [ {"type": "Feature", "properties": {"norad_id": 29808, "name": "FENGYUN 1C DEB", "group": "fengyun-1c-debris", "lat": 41.95343944319189, "lon": -100.87320261431265, "alt_km": 482.6052684777487, "timestamp": "2025-12-14T14:39:29.641891+00:00", "meta": {"OBJECT_NAME": "FENGYUN 1C DEB", "OBJECT_ID": "1999-025DA", "EPOCH": "2025-12-13T18:05:55.750272", "MEAN_MOTION": 15.23023788, "ECCENTRICITY": 0.00193922, "INCLINATION": 99.013, "RA_OF_ASC_NODE": 266.3029, "ARG_OF_PERICENTER": 92.347, "MEAN_ANOMALY": 295.676, "EPHEMERIS_TYPE": 0, "CLASSIFICATION_TYPE": "U", "NORAD_CAT_ID": 29808, "ELEMENT_SET_NO": 999, "REV_AT_EPOCH": 98241, "BSTAR": 0.013250502, "MEAN_MOTION_DOT": 0.00327025, "MEAN_MOTION_DDOT": 0}, "tle": {"line1": "1 29808U 99025DA  25347.75411748  .00327025  00000+0  13251-1 0  9991", "line2": "2 29808  99.0130 266.3029 0019392  92.3470 295.6760 15.23023788982416"}}, "geometry": {"type": "Point", "coordinates": [-100.87320261431265, 41.95343944319189]}}, {"type": "Feature", "properties": {"norad_id": 29809, "name": "FENGYUN 1C DEB", "group": "fengyun-1c-debris", "lat": 11.414269658044095, "lon": 134.04165024311655, "alt_km": 820.505113182654, "timestamp": "2025-12-14T14:39:29.641901+00:00", "meta": {"OBJECT_NAME": "FENGYUN 1C DEB", "OBJECT_ID": "1999-025DB", "EPOCH": "2025-12-13T19:53:26.642112", "MEAN_MOTION": 14.46595709, "ECCENTRICITY": 0.0116045, "INCLINATION": 98.86, "RA_OF_ASC_NODE": 311.4195, "ARG_OF_PERICENTER": 346.7505, "MEAN_ANOMALY": 71.6638, "EPHEMERIS_TYPE": 0, "CLASSIFICATION_TYPE": "U", "NORAD_CAT_ID": 29809, "ELEMENT_SET_NO": 999, "REV_AT_EPOCH": 99483, "BSTAR": 0.00050299918, "MEAN_MOTION_DOT": 1.919e-05, "MEAN_MOTION_DDOT": 0}, "tle": {"line1": "1 29809U 99025DB  25347.82878058  .00001919  00000+0  50300-3 0  9990", "line2": "2 29809  98.8600 311.4195 0116045 346.7505  71.6638 14.46595709994836"}}, "geometry": {"type": "Point", "coordinates": [134.04165024311655, 11.414269658044095]}}, {"type": "Feature", "properties": {"norad_id": 29810, "name": "FENGYUN 1C DEB", "group": "fengyun-1c-debris", "lat": 72.5008526517418, "lon": -5.421271931471773, "alt_km": 764.451706488514, "timestamp": "2025-12-14T14:39:29.641911+00:00", "meta": {"OBJECT_NAME": "FENGYUN 1C DEB", "OBJECT_ID": "1999-025DC", "EPOCH": "2025-12-13T20:39:31.622688", "MEAN_MOTION": 14.29131885, "ECCENTRICITY": 0.00668759, "INCLINATION": 99.2067, "RA_OF_ASC_NODE": 24.7461, "ARG_OF_PERICENTER": 15.7783, "MEAN_ANOMALY": 162.2549, "EPHEMERIS_TYPE": 0, "CLASSIFICATION_TYPE": "U", "NORAD_CAT_ID": 29810, "ELEMENT_SET_NO": 999, "REV_AT_EPOCH": 98393, "BSTAR": 0.00036070015, "MEAN_MOTION_DOT": 8.88e-06, "MEAN_MOTION_DDOT": 0}, "tle": {"line1": "1 29810U 99025DC  25347.86078267  .00000888  00000+0  36070-3 0  9992", "line2": "2 29810  99.2067  24.7461 0066875  15.7783 162.2549 14.29131885983935"}}, "geometry": {"type": "Point", "coordinates": [-5.421271931471773, 72.5008526517418]}}, {"type": "Feature", "properties": {"norad_id": 29812, "name": "FENGYUN 1C DEB", "group": "fengyun-1c-debris", "lat": 48.87599270160523, "lon": 6.981323468627067, "alt_km": 984.6095571656579, "timestamp": "2025-12-14T14:39:29.641921+00:00", "meta": {"OBJECT_NAME": "FENGYUN 1C DEB", "OBJECT_ID": "1999-025DE", "EPOCH": "2025-12-13T10:56:41.742816", "MEAN_MOTION": 14.01992741, "ECCENTRICITY": 0.0143936, "INCLINATION": 98.3509, "RA_OF_ASC_NODE": 176.2379, "ARG_OF_PERICENTER": 325.7429, "MEAN_ANOMALY": 99.4246, "EPHEMERIS_TYPE": 0, "CLASSIFICATION_TYPE": "U", "NORAD_CAT_ID": 29812, "ELEMENT_SET_NO": 999, "REV_AT_EPOCH": 96182, "BSTAR": 0.0016246074, "MEAN_MOTION_DOT": 2.673e-05, "MEAN_MOTION_DDOT": 0}, "tle": {"line1": "1 29812U 99025DE  25347.45603869  .00002673  00000+0  16246-2 0  9997", "line2": "2 29812  98.3509 176.2379 0143936 325.7429  99.4246 14.01992741961829"}}, "geometry": {"type": "Point", "coordinates": [6.981323468627067, 48.87599270160523]}}, {"type": "Feature", "properties": {"norad_id": 29813, "name": "FENGYUN 1C DEB", "group": "fengyun-1c-debris", "lat": 9.896567135504133, "lon": -170.0514459226544, "alt_km": 856.865042422728, "timestamp": "2025-12-14T14:39:29.641931+00:00", "meta": {"OBJECT_NAME": "FENGYUN 1C DEB", "OBJECT_ID": "1999-025DF", "EPOCH": "2025-12-14T00:29:06.507744", "MEAN_MOTION": 14.09451509, "ECCENTRICITY": 0.00118749, "INCLINATION": 98.7275, "RA_OF_ASC_NODE": 7.8406, "ARG_OF_PERICENTER": 218.1916, "MEAN_ANOMALY": 197.0077, "EPHEMERIS_TYPE": 0, "CLASSIFICATION_TYPE": "U", "NORAD_CAT_ID": 29813, "ELEMENT_SET_NO": 999, "REV_AT_EPOCH": 97278, "BSTAR": 9.8065091e-05, "MEAN_MOTION_DOT": 1.29e-06, "MEAN_MOTION_DDOT": 0}, "tle": {"line1": "1 29813U 99025DF  25348.02021421  .00000129  00000+0  98065-4 0  9995", "line2": "2 29813  98.7275   7.8406 0011874 218.1916 197.0077 14.09451509972789"}}, "geometry": {"type": "Point", "coordinates": [-170.0514459226544, 9.896567135504133]}}, {"type": "Feature", "properties": {"norad_id": 29815, "name": "FENGYUN 1C DEB", "group": "fengyun-1c-debris", "lat": 26.758623275699886, "lon": -178.81845501514508, "alt_km": 560.625880910552, "timestamp": "2025-12-14T14:39:29.641941+00:00", "meta": {"OBJECT_NAME": "FENGYUN 1C DEB", "OBJECT_ID": "1999-025DH", "EPOCH": "2025-12-13T23:12:27.431424", "MEAN_MOTION": 14.63726503, "ECCENTRICITY": 0.01840396, "INCLINATION": 98.0564, "RA_OF_ASC_NODE": 356.4564, "ARG_OF_PERICENTER": 131.3576, "MEAN_ANOMALY": 230.3623, "EPHEMERIS_TYPE": 0, "CLASSIFICATION_TYPE": "U", "NORAD_CAT_ID": 29815, "ELEMENT_SET_NO": 999, "REV_AT_EPOCH": 99873, "BSTAR": 0.00062589223, "MEAN_MOTION_DOT": 4.119e-05, "MEAN_MOTION_DDOT": 0}, "tle": {"line1": "1 29815U 99025DH  25347.96698416  .00004119  00000+0  62589-3 0  9997", "line2": "2 29815  98.0564 356.4564 0184039 131.3576 230.3623 14.63726503998735"}}, "geometry": {"type": "Point", "coordinates": [-178.81845501514508, 26.758623275699886]}}, {"type": "Feature", "properties": {"norad_id": 29816, "name": "FENGYUN 1C DEB", "group": "fengyun-1c-debris", "lat": -8.80485573602575, "lon": 27.311563928957746, "alt_km": 586.21442385507, "timestamp": "2025-12-14T14:39:29.641951+00:00", "meta": {"OBJECT_NAME": "FENGYUN 1C DEB", "OBJECT_ID": "1999-025DJ", "EPOCH": "2025-12-13T14:49:21.447840", "MEAN_MOTION": 14.44313975, "ECCENTRICITY": 0.02376858, "INCLINATION": 98.9933, "RA_OF_ASC_NODE": 207.6664, "ARG_OF_PERICENTER": 174.5008, "MEAN_ANOMALY": 252.5152, "EPHEMERIS_TYPE": 0, "CLASSIFICATION_TYPE": "U", "NORAD_CAT_ID": 29816, "ELEMENT_SET_NO": 999, "REV_AT_EPOCH": 98200, "BSTAR": 0.0013575281, "MEAN_MOTION_DOT": 6.549e-05, "MEAN_MOTION_DDOT": 0}, "tle": {"line1": "1 29816U 99025DJ  25347.61760935  .00006549  00000+0  13575-2 0  9995", "line2": "2 29816  98.9933 207.6664 0237685 174.5008 252.5152 14.44313975982008"}}, "geometry": {"type": "Point", "coordinates": [27.311563928957746, -8.80485573602575]}}, {"type": "Feature", "properties": {"norad_id": 29817, "name": "FENGYUN 1C DEB", "group": "fengyun-1c-debris", "lat": -72.54700099373494, "lon": 6.347295773213055, "alt_km": 851.3682344027038, "timestamp": "2025-12-14T14:39:29.641961+00:00", "meta": {"OBJECT_NAME": "FENGYUN 1C DEB", "OBJECT_ID": "1999-025DK", "EPOCH": "2025-12-14T00:03:53.542656", "MEAN_MOTION": 14.1425426, "ECCENTRICITY": 0.001221, "INCLINATION": 98.5576, "RA_OF_ASC_NODE": 337.1493, "ARG_OF_PERICENTER": 12.169, "MEAN_ANOMALY": 59.2028, "EPHEMERIS_TYPE": 0, "CLASSIFICATION_TYPE": "U", "NORAD_CAT_ID": 29817, "ELEMENT_SET_NO": 999, "REV_AT_EPOCH": 97413, "BSTAR": 0.00043279937, "MEAN_MOTION_DOT": 7.85e-06, "MEAN_MOTION_DDOT": 0}, "tle": {"line1": "1 29817U 99025DK  25348.00270304  .00000785  00000+0  43280-3 0  9999", "line2": "2 29817  98.5576 337.1493 0012210  12.1690  59.2028 14.14254260974133"}}, "geometry": {"type": "Point", "coordinates": [6.347295773213055, -72.54700099373494]}}, {"type": "Feature", "properties": {"norad_id": 29818, "name": "FENGYUN 1C DEB", "group": "fengyun-1c-debris", "lat": -45.65430954442088, "lon": -125.11319501524522, "alt_km": 851.2968648864799, "timestamp": "2025-12-14T14:39:29.641971+00:00", "meta": {"OBJECT_NAME": "FENGYUN 1C DEB", "OBJECT_ID": "1999-025DL", "EPOCH": "2025-12-13T21:51:07.230240", "MEAN_MOTION": 14.04501592, "ECCENTRICITY": 0.01152092, "INCLINATION": 98.721, "RA_OF_ASC_NODE": 225.179, "ARG_OF_PERICENTER": 22.5851, "MEAN_ANOMALY": 353.6764, "EPHEMERIS_TYPE": 0, "CLASSIFICATION_TYPE": "U", "NORAD_CAT_ID": 29818, "ELEMENT_SET_NO": 999, "REV_AT_EPOCH": 96826, "BSTAR": 0.00020545468, "MEAN_MOTION_DOT": 3.06e-06, "MEAN_MOTION_DDOT": 0}, "tle": {"line1": "1 29818U 99025DL  25347.91050035  .00000306  00000+0  20545-3 0  9994", "line2": "2 29818  98.7210 225.1790 0115209  22.5851 353.6764 14.04501592968260"}}, "geometry": {"type": "Point", "coordinates": [-125.11319501524522, -45.65430954442088]}}, {"type": "Feature", "properties": {"norad_id": 29819, "name": "FENGYUN 1C DEB", "group": "fengyun-1c-debris", "lat": 50.42436214355855, "lon": -38.44112386715513, "alt_km": 744.6368506546478, "timestamp": "2025-12-14T14:39:29.641981+00:00", "meta": {"OBJECT_NAME": "FENGYUN 1C DEB", "OBJECT_ID": "1999-025DM", "EPOCH": "2025-12-13T23:19:31.505088", "MEAN_MOTION": 14.02198439, "ECCENTRICITY": 0.01914952, "INCLINATION": 98.7323, "RA_OF_ASC_NODE": 331.6627, "ARG_OF_PERICENTER": 63.6378, "MEAN_ANOMALY": 4.9094, "EPHEMERIS_TYPE": 0, "CLASSIFICATION_TYPE": "U", "NORAD_CAT_ID": 29819, "ELEMENT_SET_NO": 999, "REV_AT_EPOCH": 96637, "BSTAR": 0.00056496551, "MEAN_MOTION_DOT": 9.75e-06, "MEAN_MOTION_DDOT": 0}, "tle": {"line1": "1 29819U 99025DM  25347.97189242  .00000975  00000+0  56497-3 0  9991", "line2": "2 29819  98.7323 331.6627 0191495  63.6378   4.9094 14.02198439966371"}}, "geometry": {"type": "Point", "coordinates": [-38.44112386715513, 50.42436214355855]}}]}